[{"OBJECT_NAME":"STARLINK-30432","OBJECT_ID":"2023-144A","EPOCH":"2026-03-24T00:55:28.103808","MEAN_MOTION":15.27552065,"ECCENTRICITY":0.00010388,"INCLINATION":43.0024,"RA_OF_ASC_NODE":204.0185,"ARG_OF_PERICENTER":247.5242,"MEAN_ANOMALY":112.55,"EPHEMERIS_TYPE":0,"CLASSIFICATION_TYPE":"U","NORAD_CAT_ID":57864,"ELEMENT_SET_NO":999,"REV_AT_EPOCH":13979,"BSTAR":-2.7860965e-5,"MEAN_MOTION_DOT":-1.028e-5,"MEAN_MOTION_DDOT":0},{"OBJECT_NAME":"STARLINK-30427","OBJECT_ID":"2023-144B","EPOCH":"2026-03-23T17:10:11.494848","MEAN_MOTION":15.27592051,"ECCENTRICITY":8.748e-5,"INCLINATION":42.9955,"RA_OF_ASC_NODE":205.8866,"ARG_OF_PERICENTER":247.4773,"MEAN_ANOMALY":112.5987,"EPHEMERIS_TYPE":0,"CLASSIFICATION_TYPE":"U","NORAD_CAT_ID":57865,"ELEMENT_SET_NO":999,"REV_AT_EPOCH":13974,"BSTAR":2.8760393e-5,"MEAN_MOTION_DOT":5.3e-6,"MEAN_MOTION_DDOT":0},{"OBJECT_NAME":"STARLINK-30393","OBJECT_ID":"2023-144C","EPOCH":"2026-03-23T20:01:53.471424","MEAN_MOTION":15.27349199,"ECCENTRICITY":0.00015162,"INCLINATION":43.0008,"RA_OF_ASC_NODE":205.0617,"ARG_OF_PERICENTER":263.68,"MEAN_ANOMALY":96.3879,"EPHEMERIS_TYPE":0,"CLASSIFICATION_TYPE":"U","NORAD_CAT_ID":57866,"ELEMENT_SET_NO":999,"REV_AT_EPOCH":13976,"BSTAR":0.0041102634,"MEAN_MOTION_DOT":0.00113798,"MEAN_MOTION_DDOT":0},{"OBJECT_NAME":"STARLINK-30439","OBJECT_ID":"2023-144D","EPOCH":"2026-03-24T01:06:32.566464","MEAN_MOTION":15.27574503,"ECCENTRICITY":8.662e-5,"INCLINATION":43.0023,"RA_OF_ASC_NODE":204.0727,"ARG_OF_PERICENTER":266.0805,"MEAN_ANOMALY":93.9947,"EPHEMERIS_TYPE":0,"CLASSIFICATION_TYPE":"U","NORAD_CAT_ID":57867,"ELEMENT_SET_NO":999,"REV_AT_EPOCH":13984,"BSTAR":0.00092541553,"MEAN_MOTION_DOT":0.00025286,"MEAN_MOTION_DDOT":0},{"OBJECT_NAME":"STARLINK-30442","OBJECT_ID":"2023-144E","EPOCH":"2026-03-24T01:12:05.591808","MEAN_MOTION":15.27568447,"ECCENTRICITY":4.2e-5,"INCLINATION":43.0031,"RA_OF_ASC_NODE":204.0588,"ARG_OF_PERICENTER":301.7769,"MEAN_ANOMALY":58.3042,"EPHEMERIS_TYPE":0,"CLASSIFICATION_TYPE":"U","NORAD_CAT_ID":57868,"ELEMENT_SET_NO":999,"REV_AT_EPOCH":13979,"BSTAR":1.4061963e-5,"MEAN_MOTION_DOT":1.25e-6,"MEAN_MOTION_DDOT":0},{"OBJECT_NAME":"STARLINK-30441","OBJECT_ID":"2023-144F","EPOCH":"2026-03-24T00:49:54.373440","MEAN_MOTION":15.27562003,"ECCENTRICITY":7.851e-5,"INCLINATION":43.0029,"RA_OF_ASC_NODE":203.9393,"ARG_OF_PERICENTER":289.8385,"MEAN_ANOMALY":70.2383,"EPHEMERIS_TYPE":0,"CLASSIFICATION_TYPE":"U","NORAD_CAT_ID":57869,"ELEMENT_SET_NO":999,"REV_AT_EPOCH":13979,"BSTAR":1.5705317e-5,"MEAN_MOTION_DOT":1.7e-6,"MEAN_MOTION_DDOT":0},{"OBJECT_NAME":"STARLINK-30460","OBJECT_ID":"2023-144G","EPOCH":"2026-03-24T01:15:48.039840","MEAN_MOTION":15.27567991,"ECCENTRICITY":0.00013473,"INCLINATION":43.0049,"RA_OF_ASC_NODE":204.1204,"ARG_OF_PERICENTER":292.4661,"MEAN_ANOMALY":67.6048,"EPHEMERIS_TYPE":0,"CLASSIFICATION_TYPE":"U","NORAD_CAT_ID":57870,"ELEMENT_SET_NO":999,"REV_AT_EPOCH":13984,"BSTAR":-1.555216e-6,"MEAN_MOTION_DOT":-3.05e-6,"MEAN_MOTION_DDOT":0},{"OBJECT_NAME":"STARLINK-30444","OBJECT_ID":"2023-144H","EPOCH":"2026-03-23T17:36:06.625728","MEAN_MOTION":15.2761788,"ECCENTRICITY":0.00013799,"INCLINATION":43.0022,"RA_OF_ASC_NODE":206.0269,"ARG_OF_PERICENTER":269.0207,"MEAN_ANOMALY":91.0486,"EPHEMERIS_TYPE":0,"CLASSIFICATION_TYPE":"U","NORAD_CAT_ID":57871,"ELEMENT_SET_NO":999,"REV_AT_EPOCH":13950,"BSTAR":0.00071460101,"MEAN_MOTION_DOT":0.00019477,"MEAN_MOTION_DDOT":0},{"OBJECT_NAME":"STARLINK-30446","OBJECT_ID":"2023-144J","EPOCH":"2026-03-24T00:17:36.458592","MEAN_MOTION":15.27580709,"ECCENTRICITY":8.235e-5,"INCLINATION":42.9971,"RA_OF_ASC_NODE":190.1892,"ARG_OF_PERICENTER":57.8974,"MEAN_ANOMALY":302.1957,"EPHEMERIS_TYPE":0,"CLASSIFICATION_TYPE":"U","NORAD_CAT_ID":57872,"ELEMENT_SET_NO":999,"REV_AT_EPOCH":13972,"BSTAR":0.00017470482,"MEAN_MOTION_DOT":4.549e-5,"MEAN_MOTION_DDOT":0},{"OBJECT_NAME":"STARLINK-30445","OBJECT_ID":"2023-144K","EPOCH":"2026-03-24T01:21:21.313152","MEAN_MOTION":15.27572773,"ECCENTRICITY":0.00029153,"INCLINATION":43.0053,"RA_OF_ASC_NODE":204.1536,"ARG_OF_PERICENTER":267.9056,"MEAN_ANOMALY":92.1462,"EPHEMERIS_TYPE":0,"CLASSIFICATION_TYPE":"U","NORAD_CAT_ID":57873,"ELEMENT_SET_NO":999,"REV_AT_EPOCH":13979,"BSTAR":0.00024162804,"MEAN_MOTION_DOT":6.391e-5,"MEAN_MOTION_DDOT":0},{"OBJECT_NAME":"STARLINK-30447","OBJECT_ID":"2023-144L","EPOCH":"2026-03-23T22:45:12.138624","MEAN_MOTION":15.2758698,"ECCENTRICITY":4.769e-5,"INCLINATION":43.0011,"RA_OF_ASC_NODE":178.9279,"ARG_OF_PERICENTER":6.0758,"MEAN_ANOMALY":354.0099,"EPHEMERIS_TYPE":0,"CLASSIFICATION_TYPE":"U","NORAD_CAT_ID":57874,"ELEMENT_SET_NO":999,"REV_AT_EPOCH":14011,"BSTAR":-7.652083e-6,"MEAN_MOTION_DOT":-4.72e-6,"MEAN_MOTION_DDOT":0},{"OBJECT_NAME":"STARLINK-30434","OBJECT_ID":"2023-144M","EPOCH":"2026-03-23T16:13:03.655200","MEAN_MOTION":15.27613844,"ECCENTRICITY":0.00017356,"INCLINATION":43.0042,"RA_OF_ASC_NODE":206.4472,"ARG_OF_PERICENTER":264.2363,"MEAN_ANOMALY":95.8291,"EPHEMERIS_TYPE":0,"CLASSIFICATION_TYPE":"U","NORAD_CAT_ID":57875,"ELEMENT_SET_NO":999,"REV_AT_EPOCH":13978,"BSTAR":-0.00019825017,"MEAN_MOTION_DOT":-5.719e-5,"MEAN_MOTION_DDOT":0},{"OBJECT_NAME":"STARLINK-30429","OBJECT_ID":"2023-144N","EPOCH":"2026-03-24T01:32:45.265920","MEAN_MOTION":15.26729001,"ECCENTRICITY":0.00013767,"INCLINATION":43.0019,"RA_OF_ASC_NODE":204.2063,"ARG_OF_PERICENTER":267.4166,"MEAN_ANOMALY":92.6528,"EPHEMERIS_TYPE":0,"CLASSIFICATION_TYPE":"U","NORAD_CAT_ID":57876,"ELEMENT_SET_NO":999,"REV_AT_EPOCH":13983,"BSTAR":-0.00019202837,"MEAN_MOTION_DOT":-5.405e-5,"MEAN_MOTION_DDOT":0},{"OBJECT_NAME":"STARLINK-30284","OBJECT_ID":"2023-144P","EPOCH":"2026-03-22T14:28:40.360224","MEAN_MOTION":15.27491883,"ECCENTRICITY":0.00010978,"INCLINATION":43.0013,"RA_OF_ASC_NODE":175.6275,"ARG_OF_PERICENTER":272.4438,"MEAN_ANOMALY":87.6288,"EPHEMERIS_TYPE":0,"CLASSIFICATION_TYPE":"U","NORAD_CAT_ID":57877,"ELEMENT_SET_NO":999,"REV_AT_EPOCH":14003,"BSTAR":0.00023503882,"MEAN_MOTION_DOT":6.194e-5,"MEAN_MOTION_DDOT":0},{"OBJECT_NAME":"STARLINK-30433","OBJECT_ID":"2023-144Q","EPOCH":"2026-03-24T00:33:16.031808","MEAN_MOTION":15.27552539,"ECCENTRICITY":0.00013711,"INCLINATION":43.0024,"RA_OF_ASC_NODE":203.8997,"ARG_OF_PERICENTER":254.211,"MEAN_ANOMALY":105.859,"EPHEMERIS_TYPE":0,"CLASSIFICATION_TYPE":"U","NORAD_CAT_ID":57878,"ELEMENT_SET_NO":999,"REV_AT_EPOCH":13983,"BSTAR":-3.001454e-5,"MEAN_MOTION_DOT":-1.087e-5,"MEAN_MOTION_DDOT":0},{"OBJECT_NAME":"STARLINK-30358","OBJECT_ID":"2023-144R","EPOCH":"2026-03-24T00:38:48.014304","MEAN_MOTION":15.27584995,"ECCENTRICITY":0.00013038,"INCLINATION":43.0013,"RA_OF_ASC_NODE":203.9245,"ARG_OF_PERICENTER":269.974,"MEAN_ANOMALY":90.0962,"EPHEMERIS_TYPE":0,"CLASSIFICATION_TYPE":"U","NORAD_CAT_ID":57879,"ELEMENT_SET_NO":999,"REV_AT_EPOCH":13983,"BSTAR":0.0002664232,"MEAN_MOTION_DOT":7.077e-5,"MEAN_MOTION_DDOT":0}]
