STARLINK-30432          
1 57864U 23144A   26083.03851972 -.00001028  00000+0 -27861-4 0  9998
2 57864  43.0024 204.0185 0001038 247.5242 112.5500 15.27552065139794
STARLINK-30427          
1 57865U 23144B   26082.71541082  .00000530  00000+0  28760-4 0  9995
2 57865  42.9955 205.8866 0000874 247.4773 112.5987 15.27592051139749
STARLINK-30393          
1 57866U 23144C   26082.83464666  .00113798  00000+0  41103-2 0  9996
2 57866  43.0008 205.0617 0001516 263.6800  96.3879 15.27349199139766
STARLINK-30439          
1 57867U 23144D   26083.04621026  .00025286  00000+0  92542-3 0  9994
2 57867  43.0023 204.0727 0000866 266.0805  93.9947 15.27574503139841
STARLINK-30442          
1 57868U 23144E   26083.05006472  .00000125  00000+0  14062-4 0  9995
2 57868  43.0031 204.0588 0000420 301.7769  58.3042 15.27568447139793
STARLINK-30441          
1 57869U 23144F   26083.03465710  .00000170  00000+0  15705-4 0  9993
2 57869  43.0029 203.9393 0000785 289.8385  70.2383 15.27562003139790
STARLINK-30460          
1 57870U 23144G   26083.05263935 -.00000305  00000+0 -15552-5 0  9995
2 57870  43.0049 204.1204 0001347 292.4661  67.6048 15.27567991139845
STARLINK-30444          
1 57871U 23144H   26082.73341002  .00019477  00000+0  71460-3 0  9998
2 57871  43.0022 206.0269 0001379 269.0207  91.0486 15.27617880139503
STARLINK-30446          
1 57872U 23144J   26083.01222753  .00004549  00000+0  17470-3 0  9997
2 57872  42.9971 190.1892 0000823  57.8974 302.1957 15.27580709139729
STARLINK-30445          
1 57873U 23144K   26083.05649668  .00006391  00000+0  24163-3 0  9994
2 57873  43.0053 204.1536 0002915 267.9056  92.1462 15.27572773139799
STARLINK-30447          
1 57874U 23144L   26082.94805716 -.00000472  00000+0 -76521-5 0  9993
2 57874  43.0011 178.9279 0000476   6.0758 354.0099 15.27586980140116
STARLINK-30434          
1 57875U 23144M   26082.67573675 -.00005719  00000+0 -19825-3 0  9991
2 57875  43.0042 206.4472 0001735 264.2363  95.8291 15.27613844139787
STARLINK-30429          
1 57876U 23144N   26083.06441280 -.00005405  00000+0 -19203-3 0  9994
2 57876  43.0019 204.2063 0001376 267.4166  92.6528 15.26729001139837
STARLINK-30284          
1 57877U 23144P   26081.60324491  .00006194  00000+0  23504-3 0  9990
2 57877  43.0013 175.6275 0001097 272.4438  87.6288 15.27491883140032
STARLINK-30433          
1 57878U 23144Q   26083.02310222 -.00001087  00000+0 -30015-4 0  9990
2 57878  43.0024 203.8997 0001371 254.2110 105.8590 15.27552539139831
STARLINK-30358          
1 57879U 23144R   26083.02694461  .00007077  00000+0  26642-3 0  9994
2 57879  43.0013 203.9245 0001303 269.9740  90.0962 15.27584995139833
